[{"OBJECT_NAME":"LYNK TOWER 4","OBJECT_ID":"2023-001AB","EPOCH":"2026-03-09T16:15:30.644928","MEAN_MOTION":15.31819885,"ECCENTRICITY":0.00103213,"INCLINATION":97.3324,"RA_OF_ASC_NODE":128.594,"ARG_OF_PERICENTER":112.3386,"MEAN_ANOMALY":247.895,"EPHEMERIS_TYPE":0,"CLASSIFICATION_TYPE":"U","NORAD_CAT_ID":55034,"ELEMENT_SET_NO":999,"REV_AT_EPOCH":17658,"BSTAR":0.00030013829,"MEAN_MOTION_DOT":9.16e-5,"MEAN_MOTION_DDOT":0},{"OBJECT_NAME":"STARLINK-31846","OBJECT_ID":"2024-118P","EPOCH":"2026-03-09T05:05:01.793184","MEAN_MOTION":15.30190165,"ECCENTRICITY":0.00012133,"INCLINATION":53.1611,"RA_OF_ASC_NODE":28.9083,"ARG_OF_PERICENTER":77.6146,"MEAN_ANOMALY":282.4991,"EPHEMERIS_TYPE":0,"CLASSIFICATION_TYPE":"U","NORAD_CAT_ID":60126,"ELEMENT_SET_NO":999,"REV_AT_EPOCH":9562,"BSTAR":8.000663e-6,"MEAN_MOTION_DOT":-1.22e-6,"MEAN_MOTION_DDOT":0}]
